1 44881U 19093C   20286.78505645  .00000022  00000-0  96525-5 0  9991
2 44881  97.9491   1.9882 0015717  20.9831 339.2021 14.81419563 44064